start=new Date('2023-05-20T00:00:00.000Z').valueOf();
sats=[{"BSTAR":"-0.00012980000000","DECAY_DATE":null,"MEAN_ELEMENT_THEORY":"SGP4","OBJECT_TYPE":"PAYLOAD","NORAD_CAT_ID":"48695","INCLINATION":"53.0550","ELEMENT_SET_NO":"999","CLASSIFICATION_TYPE":"U","SITE":"AFETR","PERIAPSIS":"546.397","TIME_SYSTEM":"UTC","MEAN_MOTION_DOT":"-0.00002213","OBJECT_NAME":"STARLINK-2616","OBJECT_ID":"2021-044BK","RCS_SIZE":"LARGE","REF_FRAME":"TEME","APOAPSIS":"548.107","MEAN_ANOMALY":"279.4098","REV_AT_EPOCH":"10974","ECCENTRICITY":"0.00012350","FILE":"3912278","TLE_LINE2":"2 48695  53.0550   7.0034 0001235  80.7031 279.4098 15.06387514109746","LAUNCH_DATE":"2021-05-26","EPOCH":"2023-05-19T22:15:12.576096","SEMIMAJOR_AXIS":"6925.387","CENTER_NAME":"EARTH","ARG_OF_PERICENTER":"80.7031","TLE_LINE1":"1 48695U 21044BK  23139.92722889 -.00002213  00000-0 -12980-3 0  9991","GP_ID":"232159574","EPHEMERIS_TYPE":"0","MEAN_MOTION":"15.06387514","COUNTRY_CODE":"US","MEAN_MOTION_DDOT":"0.0000000000000","RA_OF_ASC_NODE":"7.0034","PERIOD":"95.593"},{"TLE_LINE2":"2 48696  53.0551  12.0467 0001111  90.1605 269.9511 15.06393890109679","FILE":"3912278","MEAN_ANOMALY":"269.9511","APOAPSIS":"548.002","REV_AT_EPOCH":"10967","ECCENTRICITY":"0.00011110","RCS_SIZE":"LARGE","REF_FRAME":"TEME","RA_OF_ASC_NODE":"12.0467","PERIOD":"95.593","MEAN_MOTION":"15.06393890","COUNTRY_CODE":"US","MEAN_MOTION_DDOT":"0.0000000000000","ARG_OF_PERICENTER":"90.1605","CENTER_NAME":"EARTH","TLE_LINE1":"1 48696U 21044BL  23139.91755874  .00001096  00000-0  92462-4 0  9991","EPHEMERIS_TYPE":"0","GP_ID":"232159826","LAUNCH_DATE":"2021-05-26","SEMIMAJOR_AXIS":"6925.367","EPOCH":"2023-05-19T22:01:17.075136","ELEMENT_SET_NO":"999","INCLINATION":"53.0551","NORAD_CAT_ID":"48696","BSTAR":"0.00009246200000","OBJECT_TYPE":"PAYLOAD","DECAY_DATE":null,"MEAN_ELEMENT_THEORY":"SGP4","OBJECT_NAME":"STARLINK-2753","OBJECT_ID":"2021-044BL","PERIAPSIS":"546.463","TIME_SYSTEM":"UTC","MEAN_MOTION_DOT":"0.00001096","SITE":"AFETR","CLASSIFICATION_TYPE":"U"},{"COUNTRY_CODE":"US","MEAN_MOTION_DDOT":"0.0000000000000","MEAN_MOTION":"15.06396844","RA_OF_ASC_NODE":"12.1723","PERIOD":"95.592","EPOCH":"2023-05-19T21:08:11.312736","LAUNCH_DATE":"2021-05-26","SEMIMAJOR_AXIS":"6925.358","TLE_LINE1":"1 48697U 21044BM  23139.88068649 -.00002113  00000-0 -12300-3 0  9990","GP_ID":"232160548","EPHEMERIS_TYPE":"0","ARG_OF_PERICENTER":"91.8761","CENTER_NAME":"EARTH","FILE":"3912278","TLE_LINE2":"2 48697  53.0547  12.1723 0000857  91.8761 268.2326 15.06396844109665","REF_FRAME":"TEME","RCS_SIZE":"LARGE","ECCENTRICITY":"0.00008570","APOAPSIS":"547.817","MEAN_ANOMALY":"268.2326","REV_AT_EPOCH":"10966","MEAN_MOTION_DOT":"-0.00002113","PERIAPSIS":"546.630","TIME_SYSTEM":"UTC","OBJECT_ID":"2021-044BM","OBJECT_NAME":"STARLINK-2715","CLASSIFICATION_TYPE":"U","SITE":"AFETR","INCLINATION":"53.0547","ELEMENT_SET_NO":"999","DECAY_DATE":null,"MEAN_ELEMENT_THEORY":"SGP4","OBJECT_TYPE":"PAYLOAD","BSTAR":"-0.00012300000000","NORAD_CAT_ID":"48697"},{"MEAN_MOTION_DOT":"0.00001691","PERIAPSIS":"560.253","TIME_SYSTEM":"UTC","OBJECT_NAME":"STARLINK-3003","OBJECT_ID":"2021-059A","CLASSIFICATION_TYPE":"U","SITE":"AFETR","INCLINATION":"97.5354","ELEMENT_SET_NO":"999","DECAY_DATE":null,"MEAN_ELEMENT_THEORY":"SGP4","OBJECT_TYPE":"PAYLOAD","BSTAR":"0.00013320000000","NORAD_CAT_ID":"48879","COUNTRY_CODE":"US","MEAN_MOTION_DDOT":"0.0000000000000","MEAN_MOTION":"15.02077774","RA_OF_ASC_NODE":"265.2378","PERIOD":"95.867","SEMIMAJOR_AXIS":"6938.627","LAUNCH_DATE":"2021-06-30","EPOCH":"2023-05-19T21:33:29.899008","TLE_LINE1":"1 48879U 21059A   23139.89826272  .00001691  00000-0  13320-3 0  9994","EPHEMERIS_TYPE":"0","GP_ID":"232160567","CENTER_NAME":"EARTH","ARG_OF_PERICENTER":"150.8585","FILE":"3912278","TLE_LINE2":"2 48879  97.5354 265.2378 0000345 150.8585 209.2659 15.02077774105041","REF_FRAME":"TEME","RCS_SIZE":"LARGE","ECCENTRICITY":"0.00003450","MEAN_ANOMALY":"209.2659","APOAPSIS":"560.732","REV_AT_EPOCH":"10504"},{"MEAN_MOTION":"15.02088945","MEAN_MOTION_DDOT":"0.0000000000000","COUNTRY_CODE":"US","PERIOD":"95.866","RA_OF_ASC_NODE":"265.2279","SEMIMAJOR_AXIS":"6938.593","LAUNCH_DATE":"2021-06-30","EPOCH":"2023-05-19T21:31:03.143424","CENTER_NAME":"EARTH","ARG_OF_PERICENTER":"222.7636","GP_ID":"232159343","EPHEMERIS_TYPE":"0","TLE_LINE1":"1 48880U 21059B   23139.89656416  .00001001  00000-0  80644-4 0  9996","FILE":"3912278","TLE_LINE2":"2 48880  97.5345 265.2279 0001600 222.7636 137.3465 15.02088945105042","RCS_SIZE":"LARGE","REF_FRAME":"TEME","REV_AT_EPOCH":"10504","APOAPSIS":"561.568","MEAN_ANOMALY":"137.3465","ECCENTRICITY":"0.00016000","TIME_SYSTEM":"UTC","PERIAPSIS":"559.348","MEAN_MOTION_DOT":"0.00001001","OBJECT_NAME":"STARLINK-3004","OBJECT_ID":"2021-059B","CLASSIFICATION_TYPE":"U","SITE":"AFETR","INCLINATION":"97.5345","ELEMENT_SET_NO":"999","BSTAR":"0.00008064400000","MEAN_ELEMENT_THEORY":"SGP4","DECAY_DATE":null,"OBJECT_TYPE":"PAYLOAD","NORAD_CAT_ID":"48880"},{"PERIOD":"95.867","RA_OF_ASC_NODE":"265.2460","MEAN_MOTION":"15.02073239","MEAN_MOTION_DDOT":"0.0000000000000","COUNTRY_CODE":"US","ARG_OF_PERICENTER":"208.5960","CENTER_NAME":"EARTH","GP_ID":"232159094","EPHEMERIS_TYPE":"0","TLE_LINE1":"1 48881U 21059C   23139.89235879  .00001931  00000-0  15156-3 0  9990","LAUNCH_DATE":"2021-06-30","EPOCH":"2023-05-19T21:24:59.799456","SEMIMAJOR_AXIS":"6938.641","TLE_LINE2":"2 48881  97.5287 265.2460 0000849 208.5960 151.5218 15.02073239105040","FILE":"3912278","REV_AT_EPOCH":"10504","MEAN_ANOMALY":"151.5218","APOAPSIS":"561.095","ECCENTRICITY":"0.00008490","RCS_SIZE":"LARGE","REF_FRAME":"TEME","OBJECT_NAME":"STARLINK-3005","OBJECT_ID":"2021-059C","TIME_SYSTEM":"UTC","PERIAPSIS":"559.917","MEAN_MOTION_DOT":"0.00001931","SITE":"AFETR","CLASSIFICATION_TYPE":"U","ELEMENT_SET_NO":"999","INCLINATION":"97.5287","NORAD_CAT_ID":"48881","BSTAR":"0.00015156000000","OBJECT_TYPE":"PAYLOAD","DECAY_DATE":null,"MEAN_ELEMENT_THEORY":"SGP4"},{"PERIAPSIS":"569.791","TIME_SYSTEM":"UTC","MEAN_MOTION_DOT":"0.00000338","OBJECT_NAME":"STARLINK-3096","OBJECT_ID":"2021-082B","CLASSIFICATION_TYPE":"U","SITE":"AFWTR","INCLINATION":"69.9985","ELEMENT_SET_NO":"999","BSTAR":"0.00003613700000","MEAN_ELEMENT_THEORY":"SGP4","DECAY_DATE":null,"OBJECT_TYPE":"PAYLOAD","NORAD_CAT_ID":"49131","MEAN_MOTION":"14.98330484","COUNTRY_CODE":"US","MEAN_MOTION_DDOT":"0.0000000000000","RA_OF_ASC_NODE":"318.4050","PERIOD":"96.107","EPOCH":"2023-05-19T20:38:52.591488","LAUNCH_DATE":"2021-09-14","SEMIMAJOR_AXIS":"6950.191","CENTER_NAME":"EARTH","ARG_OF_PERICENTER":"269.1811","TLE_LINE1":"1 49131U 21082B   23139.86033092  .00000338  00000-0  36137-4 0  9998","GP_ID":"232159368","EPHEMERIS_TYPE":"0","FILE":"3912278","TLE_LINE2":"2 49131  69.9985 318.4050 0003260 269.1811  90.8975 14.98330484 93459","RCS_SIZE":"LARGE","REF_FRAME":"TEME","APOAPSIS":"574.322","MEAN_ANOMALY":"90.8975","REV_AT_EPOCH":"9345","ECCENTRICITY":"0.00032600"},{"INCLINATION":"69.9990","ELEMENT_SET_NO":"999","DECAY_DATE":null,"MEAN_ELEMENT_THEORY":"SGP4","OBJECT_TYPE":"PAYLOAD","BSTAR":"0.00010482000000","NORAD_CAT_ID":"49132","MEAN_MOTION_DOT":"0.00001158","PERIAPSIS":"569.810","TIME_SYSTEM":"UTC","OBJECT_ID":"2021-082C","OBJECT_NAME":"STARLINK-3090","CLASSIFICATION_TYPE":"U","SITE":"AFWTR","FILE":"3912278","TLE_LINE2":"2 49132  69.9990 358.3287 0003246 265.8332  94.2456 14.98327310 92473","REF_FRAME":"TEME","RCS_SIZE":"LARGE","ECCENTRICITY":"0.00032460","APOAPSIS":"574.322","MEAN_ANOMALY":"94.2456","REV_AT_EPOCH":"9247","COUNTRY_CODE":"US","MEAN_MOTION_DDOT":"0.0000000000000","MEAN_MOTION":"14.98327310","RA_OF_ASC_NODE":"358.3287","PERIOD":"96.107","LAUNCH_DATE":"2021-09-14","EPOCH":"2023-05-19T21:27:37.794816","SEMIMAJOR_AXIS":"6950.201","TLE_LINE1":"1 49132U 21082C   23139.89418744  .00001158  00000-0  10482-3 0  9998","EPHEMERIS_TYPE":"0","GP_ID":"232159119","ARG_OF_PERICENTER":"265.8332","CENTER_NAME":"EARTH"},{"INCLINATION":"69.9991","ELEMENT_SET_NO":"999","OBJECT_TYPE":"PAYLOAD","DECAY_DATE":null,"MEAN_ELEMENT_THEORY":"SGP4","BSTAR":"-0.00071781000000","NORAD_CAT_ID":"49133","MEAN_MOTION_DOT":"-0.00008659","TIME_SYSTEM":"UTC","PERIAPSIS":"569.517","OBJECT_ID":"2021-082D","OBJECT_NAME":"STARLINK-3077","CLASSIFICATION_TYPE":"U","SITE":"AFWTR","FILE":"3912278","TLE_LINE2":"2 49133  69.9991 358.3428 0003426 269.7629  90.3138 14.98381707 92478","REF_FRAME":"TEME","RCS_SIZE":"LARGE","ECCENTRICITY":"0.00034260","REV_AT_EPOCH":"9247","APOAPSIS":"574.279","MEAN_ANOMALY":"90.3138","MEAN_MOTION_DDOT":"0.0000000000000","COUNTRY_CODE":"US","MEAN_MOTION":"14.98381707","PERIOD":"96.104","RA_OF_ASC_NODE":"358.3428","LAUNCH_DATE":"2021-09-14","EPOCH":"2023-05-19T21:21:34.923456","SEMIMAJOR_AXIS":"6950.033","GP_ID":"232160370","EPHEMERIS_TYPE":"0","TLE_LINE1":"1 49133U 21082D   23139.88998754 -.00008659  00000-0 -71781-3 0  9996","ARG_OF_PERICENTER":"269.7629","CENTER_NAME":"EARTH"},{"OBJECT_ID":"2021-082E","OBJECT_NAME":"STARLINK-3078","TIME_SYSTEM":"UTC","PERIAPSIS":"569.934","MEAN_MOTION_DOT":"0.00000813","SITE":"AFWTR","CLASSIFICATION_TYPE":"U","ELEMENT_SET_NO":"999","INCLINATION":"70.0000","NORAD_CAT_ID":"49134","BSTAR":"0.00007590900000","OBJECT_TYPE":"PAYLOAD","DECAY_DATE":null,"MEAN_ELEMENT_THEORY":"SGP4","PERIOD":"96.107","RA_OF_ASC_NODE":"358.3555","MEAN_MOTION":"14.98329139","MEAN_MOTION_DDOT":"0.0000000000000","COUNTRY_CODE":"US","CENTER_NAME":"EARTH","ARG_OF_PERICENTER":"268.6331","GP_ID":"232160093","EPHEMERIS_TYPE":"0","TLE_LINE1":"1 49134U 21082E   23139.88583069  .00000813  00000-0  75909-4 0  9995","SEMIMAJOR_AXIS":"6950.196","LAUNCH_DATE":"2021-09-14","EPOCH":"2023-05-19T21:15:35.771616","TLE_LINE2":"2 49134  70.0000 358.3555 0003059 268.6331  91.4478 14.98329139 93677","FILE":"3912278","REV_AT_EPOCH":"9367","APOAPSIS":"574.187","MEAN_ANOMALY":"91.4478","ECCENTRICITY":"0.00030590","RCS_SIZE":"LARGE","REF_FRAME":"TEME"}];
